{
  "features": [
    {
      "geometry": {
        "coordinates": [
          [
            [
              24.0,
              57.0
            ],
            [
              24.6,
              57.0
            ],
            [
              24.6,
              57.3
            ],
            [
              24.0,
              57.3
            ],
            [
              24.0,
              57.0
            ]
          ],
          [
            [
              24.2,
              57.1
            ],
            [
              24.2,
              57.2
            ],
            [
              24.4,
              57.2
            ],
            [
              24.4,
              57.1
            ],
            [
              24.2,
              57.1
            ]
          ]
        ],
        "type": "Polygon"
      },
      "id": "ac7fb0f8-eb2c-57b2-ac34-e6fd1d55222b",
      "properties": {
        "sc:object_id": "ac7fb0f8-eb2c-57b2-ac34-e6fd1d55222b",
        "sc:object_kind": "plan_object",
        "sc:object_type": "ANNOTATION",
        "sc:schema_version": "3.0.0",
        "sc:source_adapter": "geopackage",
        "sc:source_adapter_version": "1.0.0",
        "sc:source_ids": [
          {
            "external_id": "areas/1",
            "system": "GeoPackage:exercise-baltic"
          }
        ],
        "sc:source_system": "GeoPackage",
        "sc:synthetic": true
      },
      "type": "Feature"
    },
    {
      "geometry": {
        "coordinates": [
          [
            [
              23.8,
              56.8
            ],
            [
              23.9,
              56.8
            ],
            [
              23.9,
              56.9
            ],
            [
              23.8,
              56.9
            ],
            [
              23.8,
              56.8
            ]
          ]
        ],
        "type": "Polygon"
      },
      "id": "2109c393-c454-5fbf-a2df-3a4e5881f52f",
      "properties": {
        "sc:object_id": "2109c393-c454-5fbf-a2df-3a4e5881f52f",
        "sc:object_kind": "plan_object",
        "sc:object_type": "ANNOTATION",
        "sc:schema_version": "3.0.0",
        "sc:source_adapter": "geopackage",
        "sc:source_adapter_version": "1.0.0",
        "sc:source_ids": [
          {
            "external_id": "areas/2",
            "system": "GeoPackage:exercise-baltic"
          }
        ],
        "sc:source_system": "GeoPackage",
        "sc:synthetic": true
      },
      "type": "Feature"
    },
    {
      "geometry": {
        "coordinates": [
          [
            [
              24.7,
              57.0
            ],
            [
              24.9,
              57.0
            ],
            [
              24.9,
              57.1
            ],
            [
              24.7,
              57.1
            ],
            [
              24.7,
              57.0
            ]
          ]
        ],
        "type": "Polygon"
      },
      "id": "7e7d9796-d01d-5289-bf14-fa0ea42a5761",
      "properties": {
        "sc:object_id": "7e7d9796-d01d-5289-bf14-fa0ea42a5761",
        "sc:object_kind": "plan_object",
        "sc:object_type": "ANNOTATION",
        "sc:schema_version": "3.0.0",
        "sc:source_adapter": "geopackage",
        "sc:source_adapter_version": "1.0.0",
        "sc:source_ids": [
          {
            "external_id": "areas/3",
            "system": "GeoPackage:exercise-baltic"
          }
        ],
        "sc:source_system": "GeoPackage",
        "sc:synthetic": true
      },
      "type": "Feature"
    },
    {
      "geometry": {
        "coordinates": [
          24.1052,
          56.9496,
          12.5
        ],
        "type": "Point"
      },
      "id": "2914ee22-ea25-5e4f-a1b9-79475921dcff",
      "properties": {
        "sc:object_id": "2914ee22-ea25-5e4f-a1b9-79475921dcff",
        "sc:object_kind": "plan_object",
        "sc:object_type": "ANNOTATION",
        "sc:schema_version": "3.0.0",
        "sc:source_adapter": "geopackage",
        "sc:source_adapter_version": "1.0.0",
        "sc:source_ids": [
          {
            "external_id": "facilities/1",
            "system": "GeoPackage:exercise-baltic"
          }
        ],
        "sc:source_system": "GeoPackage",
        "sc:synthetic": true
      },
      "type": "Feature"
    },
    {
      "geometry": {
        "coordinates": [
          0.0,
          0.0,
          0.0
        ],
        "type": "Point"
      },
      "id": "2fe280ea-c7ea-5472-b332-d71e68509870",
      "properties": {
        "sc:object_id": "2fe280ea-c7ea-5472-b332-d71e68509870",
        "sc:object_kind": "plan_object",
        "sc:object_type": "ANNOTATION",
        "sc:schema_version": "3.0.0",
        "sc:source_adapter": "geopackage",
        "sc:source_adapter_version": "1.0.0",
        "sc:source_ids": [
          {
            "external_id": "facilities/2",
            "system": "GeoPackage:exercise-baltic"
          }
        ],
        "sc:source_system": "GeoPackage",
        "sc:synthetic": true
      },
      "type": "Feature"
    },
    {
      "geometry": {
        "coordinates": [
          24.4,
          57.1,
          -3.25
        ],
        "type": "Point"
      },
      "id": "17e7ed11-8152-5c9d-ae9b-166446e32219",
      "properties": {
        "sc:object_id": "17e7ed11-8152-5c9d-ae9b-166446e32219",
        "sc:object_kind": "plan_object",
        "sc:object_type": "ANNOTATION",
        "sc:schema_version": "3.0.0",
        "sc:source_adapter": "geopackage",
        "sc:source_adapter_version": "1.0.0",
        "sc:source_ids": [
          {
            "external_id": "facilities/3",
            "system": "GeoPackage:exercise-baltic"
          }
        ],
        "sc:source_system": "GeoPackage",
        "sc:synthetic": true
      },
      "type": "Feature"
    },
    {
      "geometry": {
        "coordinates": [
          [
            24.1,
            57.0
          ],
          [
            24.3,
            57.1
          ],
          [
            24.5,
            57.1
          ]
        ],
        "type": "LineString"
      },
      "id": "78431a9f-b71d-516b-b198-9d8106597023",
      "properties": {
        "sc:object_id": "78431a9f-b71d-516b-b198-9d8106597023",
        "sc:object_kind": "plan_object",
        "sc:object_type": "ANNOTATION",
        "sc:schema_version": "3.0.0",
        "sc:source_adapter": "geopackage",
        "sc:source_adapter_version": "1.0.0",
        "sc:source_ids": [
          {
            "external_id": "routes/1",
            "system": "GeoPackage:exercise-baltic"
          }
        ],
        "sc:source_system": "GeoPackage",
        "sc:synthetic": true
      },
      "type": "Feature"
    },
    {
      "geometry": {
        "coordinates": [
          [
            24.0,
            56.9
          ],
          [
            24.0,
            57.2
          ]
        ],
        "type": "LineString"
      },
      "id": "58d2e7f8-9f49-57d4-9979-2ab3efc8e99a",
      "properties": {
        "sc:object_id": "58d2e7f8-9f49-57d4-9979-2ab3efc8e99a",
        "sc:object_kind": "plan_object",
        "sc:object_type": "ANNOTATION",
        "sc:schema_version": "3.0.0",
        "sc:source_adapter": "geopackage",
        "sc:source_adapter_version": "1.0.0",
        "sc:source_ids": [
          {
            "external_id": "routes/2",
            "system": "GeoPackage:exercise-baltic"
          }
        ],
        "sc:source_system": "GeoPackage",
        "sc:synthetic": true
      },
      "type": "Feature"
    },
    {
      "geometry": {
        "coordinates": [
          [
            23.9,
            57.0
          ],
          [
            24.6,
            57.0
          ]
        ],
        "type": "LineString"
      },
      "id": "8f1889bb-d6c7-513c-bced-b036fb86242e",
      "properties": {
        "sc:object_id": "8f1889bb-d6c7-513c-bced-b036fb86242e",
        "sc:object_kind": "plan_object",
        "sc:object_type": "ANNOTATION",
        "sc:schema_version": "3.0.0",
        "sc:source_adapter": "geopackage",
        "sc:source_adapter_version": "1.0.0",
        "sc:source_ids": [
          {
            "external_id": "routes/3",
            "system": "GeoPackage:exercise-baltic"
          }
        ],
        "sc:source_system": "GeoPackage",
        "sc:synthetic": true
      },
      "type": "Feature"
    }
  ],
  "sc:profile": "synapsecommand-exchange/1",
  "type": "FeatureCollection"
}
