{
 "type": "FeatureCollection",
 "features": [
  {
   "type": "Feature",
   "id": 1,
   "geometry": {
    "type": "Point",
    "coordinates": [
     24.1,
     57.0
    ]
   },
   "properties": {
    "name": "EXERCISE POINT"
   }
  },
  {
   "type": "Feature",
   "id": 2,
   "geometry": {
    "type": "GeometryCollection",
    "geometries": [
     {
      "type": "Point",
      "coordinates": [
       24.2,
       57.0
      ]
     },
     {
      "type": "LineString",
      "coordinates": [
       [
        24.2,
        57.0
       ],
       [
        24.3,
        57.0
       ]
      ]
     }
    ]
   },
   "properties": {
    "name": "EXERCISE COLLECTION"
   }
  }
 ]
}
