{
 "type": "FeatureCollection",
 "features": [
  {
   "type": "Feature",
   "id": 10,
   "geometry": {
    "type": "Point",
    "coordinates": [
     0.0,
     0.0
    ]
   },
   "properties": {
    "name": "EXERCISE POINT"
   }
  },
  {
   "type": "Feature",
   "id": 11,
   "geometry": {
    "type": "MultiPoint",
    "coordinates": [
     [
      24.1,
      57.1
     ],
     [
      24.2,
      57.2
     ]
    ]
   },
   "properties": {
    "name": "EXERCISE MULTIPOINT"
   }
  },
  {
   "type": "Feature",
   "id": 12,
   "geometry": {
    "type": "LineString",
    "coordinates": [
     [
      24.0,
      57.0
     ],
     [
      24.5,
      57.5
     ]
    ]
   },
   "properties": {
    "name": "EXERCISE LINESTRING"
   }
  },
  {
   "type": "Feature",
   "id": 13,
   "geometry": {
    "type": "MultiLineString",
    "coordinates": [
     [
      [
       24.0,
       57.0
      ],
      [
       24.1,
       57.0
      ]
     ],
     [
      [
       24.2,
       57.0
      ],
      [
       24.3,
       57.0
      ],
      [
       24.4,
       57.1
      ]
     ]
    ]
   },
   "properties": {
    "name": "EXERCISE MULTILINESTRING"
   }
  },
  {
   "type": "Feature",
   "id": 14,
   "geometry": {
    "type": "Polygon",
    "coordinates": [
     [
      [
       24.0,
       57.0
      ],
      [
       24.5,
       57.0
      ],
      [
       24.5,
       57.5
      ],
      [
       24.0,
       57.5
      ],
      [
       24.0,
       57.0
      ]
     ]
    ]
   },
   "properties": {
    "name": "EXERCISE POLYGON"
   }
  },
  {
   "type": "Feature",
   "id": 15,
   "geometry": {
    "type": "MultiPolygon",
    "coordinates": [
     [
      [
       [
        24.0,
        57.0
       ],
       [
        24.2,
        57.0
       ],
       [
        24.2,
        57.2
       ],
       [
        24.0,
        57.2
       ],
       [
        24.0,
        57.0
       ]
      ],
      [
       [
        24.05,
        57.05
       ],
       [
        24.05,
        57.15
       ],
       [
        24.15,
        57.15
       ],
       [
        24.15,
        57.05
       ],
       [
        24.05,
        57.05
       ]
      ]
     ],
     [
      [
       [
        25.0,
        57.0
       ],
       [
        25.2,
        57.0
       ],
       [
        25.2,
        57.2
       ],
       [
        25.0,
        57.2
       ],
       [
        25.0,
        57.0
       ]
      ]
     ]
    ]
   },
   "properties": {
    "name": "EXERCISE MULTIPOLYGON"
   }
  }
 ]
}
