{
"type": "FeatureCollection",
"name": "SELECT",
"crs": { "type": "name", "properties": { "name": "urn:ogc:def:crs:OGC:1.3:CRS84" } },
"features": [
{"type":"Feature","id":1,"properties":{"name":"EXERCISE HARBOUR OFFICE","category":"port","capacity":120,"ratio":0.5,"note":null,"payload":"DEADBEEF00"},"geometry":{"type":"Point","coordinates":[24.1052,56.9496,12.5]}},
{"type":"Feature","id":2,"properties":{"name":"EXERCISE ORIGIN BUOY","category":"buoy","capacity":0,"ratio":0.0,"note":"zero","payload":"DEADBEEF00"},"geometry":{"type":"Point","coordinates":[0.0,0.0,0.0]}},
{"type":"Feature","id":3,"properties":{"name":"EXERCISE DEPOT","category":"depot","capacity":null,"ratio":null,"note":null,"payload":null},"geometry":{"type":"Point","coordinates":[24.4,57.1,-3.25]}}
]
}
