{
"type": "FeatureCollection",
"name": "SELECT",
"crs": { "type": "name", "properties": { "name": "urn:ogc:def:crs:OGC:1.3:CRS84" } },
"features": [
{"type":"Feature","id":10,"properties":{"name":"EXERCISE POINT"},"geometry":{"type":"Point","coordinates":[0.0,0.0]}},
{"type":"Feature","id":11,"properties":{"name":"EXERCISE MULTIPOINT"},"geometry":{"type":"MultiPoint","coordinates":[[24.1,57.1],[24.2,57.2]]}},
{"type":"Feature","id":12,"properties":{"name":"EXERCISE LINESTRING"},"geometry":{"type":"LineString","coordinates":[[24.0,57.0],[24.5,57.5]]}},
{"type":"Feature","id":13,"properties":{"name":"EXERCISE MULTILINESTRING"},"geometry":{"type":"MultiLineString","coordinates":[[[24.0,57.0],[24.1,57.0]],[[24.2,57.0],[24.3,57.0],[24.4,57.1]]]}},
{"type":"Feature","id":14,"properties":{"name":"EXERCISE POLYGON"},"geometry":{"type":"Polygon","coordinates":[[[24.0,57.0],[24.5,57.0],[24.5,57.5],[24.0,57.5],[24.0,57.0]]]}},
{"type":"Feature","id":15,"properties":{"name":"EXERCISE MULTIPOLYGON"},"geometry":{"type":"MultiPolygon","coordinates":[[[[24.0,57.0],[24.2,57.0],[24.2,57.2],[24.0,57.2],[24.0,57.0]],[[24.05,57.05],[24.05,57.15],[24.15,57.15],[24.15,57.05],[24.05,57.05]]],[[[25.0,57.0],[25.2,57.0],[25.2,57.2],[25.0,57.2],[25.0,57.0]]]]}}
]
}
