{
  "features": [
    {
      "geometry": {
        "coordinates": [
          [
            [
              24.0,
              57.0
            ],
            [
              24.5,
              57.0
            ],
            [
              24.5,
              57.3
            ],
            [
              24.0,
              57.3
            ],
            [
              24.0,
              57.0
            ]
          ]
        ],
        "type": "Polygon"
      },
      "id": "f1c70000-0016-8000-8000-000000000001",
      "properties": {},
      "type": "Feature"
    }
  ],
  "type": "FeatureCollection"
}
