{
  "features": [
    {
      "geometry": null,
      "id": "f1c70000-0016-8000-8000-000000000003",
      "properties": {
        "sc:affiliation": "UNKNOWN",
        "sc:entity_id": "f1c70000-0016-8000-8000-000000000003",
        "sc:entity_type": "UNKNOWN",
        "sc:object_kind": "entity",
        "sc:schema_version": "3.0.0",
        "sc:source_adapter": "planner_stub",
        "sc:source_adapter_version": "1.0.0",
        "sc:source_ids": [
          {
            "external_id": "UNK-EX-0003",
            "system": "PLANNER"
          }
        ],
        "sc:source_system": "PLANNER",
        "sc:synthetic": true,
        "sc:valid_from": "2026-04-29T06:00:00.000Z"
      },
      "type": "Feature"
    }
  ],
  "sc:profile": "synapsecommand-exchange/1",
  "type": "FeatureCollection"
}
